NORAD_CAT_ID,OBJECT_NAME,OBJECT_TYPE,EPOCH,MEAN_MOTION,ECCENTRICITY,INCLINATION,RA_OF_ASC_NODE,ARG_OF_PERICENTER,MEAN_ANOMALY,BSTAR,MEAN_MOTION_DOT,MEAN_MOTION_DDOT,TLE_LINE0,TLE_LINE1,TLE_LINE2,SEMIMAJOR_AXIS,PERIOD,APOGEE,PERIGEE,DECAYED
51759.0,STARLINK-3456,PAYLOAD,2022-09-27 02:26:31,15.08839513,0.0001564,53.2199,203.6321,64.2904,295.8249,3.971e-05,3.44e-06,0.0,0 STARLINK-3456,1 51759U 22016AX  22270.10174939  .00000344  00000-0  39710-4 0  9990,2 51759  53.2199 203.6321 0001564  64.2904 295.8249 15.08839513 33554,6917.882,95.438,540.8290000000002,538.665,0.0
51759.0,STARLINK-3456,PAYLOAD,2022-09-28 02:17:18,15.08832466,0.0001551,53.22,199.1722,61.8458,298.269,0.00011964,1.616e-05,0.0,0 STARLINK-3456,1 51759U 22016AX  22271.09535297  .00001616  00000-0  11964-3 0  9990,2 51759  53.2200 199.1722 0001551  61.8458 298.2690 15.08832466 34833,6917.903,95.438,540.841,538.695,0.0
51759.0,STARLINK-3456,PAYLOAD,2022-09-28 11:49:37,15.08830802,0.0001554999999999,53.22,197.388,62.9769,297.1381,0.00014252,1.98e-05,0.0,0 STARLINK-3456,1 51759U 22016AX  22271.49279545  .00001980  00000-0  14252-3 0  9992,2 51759  53.2200 197.3880 0001555  62.9769 297.1381 15.08830802 33767,6917.909000000002,95.438,540.849,538.698,0.0
51759.0,STARLINK-3456,PAYLOAD,2022-09-29 03:43:29,15.08836681,0.0001347,53.2192,194.4112,79.1062,281.0082,-6.765699999999999e-05,-1.364e-05,0.0,0 STARLINK-3456,1 51759U 22016AX  22272.15519858 -.00001364  00000-0 -67657-4 0  9996,2 51759  53.2192 194.4112 0001347  79.1062 281.0082 15.08836681 34995,6917.891,95.438,540.687,538.8240000000002,0.0
51759.0,STARLINK-3456,PAYLOAD,2022-09-29 11:40:26,15.08820202,0.000147,53.2192,192.9269,54.9224,305.1906,-0.00012967,-2.35e-05,0.0,0 STARLINK-3456,1 51759U 22016AX  22272.48641414 -.00002350  00000-0 -12967-3 0  9995,2 51759  53.2192 192.9269 0001470  54.9224 305.1906 15.08820202 33915,6917.941,95.439,540.823,538.789,0.0
51759.0,STARLINK-3456,PAYLOAD,2022-09-30 03:34:17,15.08828423,0.00016,53.2204,189.9526,57.7498,302.3649,5.7121000000000025e-06,-1.97e-06,0.0,0 STARLINK-3456,1 51759U 22016AX  22273.14881248 -.00000197  00000-0  57121-5 0  9999,2 51759  53.2204 189.9526 0001600  57.7498 302.3649 15.08828423 35143,6917.916,95.438,540.888,538.674,0.0
51759.0,STARLINK-3456,PAYLOAD,2022-09-30 11:31:12,15.08836754,0.000145,53.22,188.4667,61.2573,298.8565,9.0997e-05,1.16e-05,0.0,0 STARLINK-3456,1 51759U 22016AX  22273.48000729  .00001160  00000-0  90997-4 0  9990,2 51759  53.2200 188.4667 0001450  61.2573 298.8565 15.08836754 34068,6917.89,95.438,540.758,538.752,0.0
51759.0,STARLINK-3456,PAYLOAD,2022-10-01 11:21:59,15.08855515,0.000138,53.2176,184.0079,60.3934,299.7196,0.00056756,8.759999999999999e-05,0.0,0 STARLINK-3456,1 51759U 22016AX  22274.47360287  .00008760  00000-0  56756-3 0  9995,2 51759  53.2176 184.0079 0001380  60.3934 299.7196 15.08855515 35340,6917.833000000001,95.437,540.653,538.743,0.0
51759.0,STARLINK-3456,PAYLOAD,2022-10-02 03:15:50,15.08854223,0.0001478,53.2178,181.0335,57.932,302.1816,0.00019994,2.897e-05,0.0,0 STARLINK-3456,1 51759U 22016AX  22275.13599818  .00002897  00000-0  19994-3 0  9991,2 51759  53.2178 181.0335 0001478  57.9320 302.1816 15.08854223 35447,6917.837,95.437,540.724,538.679,0.0
51759.0,STARLINK-3456,PAYLOAD,2022-10-03 03:06:37,15.08846222,0.000154,53.2178,176.5717,62.4255,297.6894,0.00011334,1.517e-05,0.0,0 STARLINK-3456,1 51759U 22016AX  22276.12960244  .00001517  00000-0  11334-3 0  9994,2 51759  53.2178 176.5717 0001540  62.4255 297.6894 15.08846222 35598,6917.861,95.437,540.7919999999998,538.661,0.0
51759.0,STARLINK-3456,PAYLOAD,2022-10-03 11:03:32,15.08861985,0.0001595999999999,53.2189,175.0863,62.234,297.8814,0.00048358,7.421e-05,0.0,0 STARLINK-3456,1 51759U 22016AX  22276.46079683  .00007421  00000-0  48358-3 0  9995,2 51759  53.2189 175.0863 0001596  62.2340 297.8814 15.08861985 34518,6917.813,95.436,540.7819999999998,538.5740000000002,0.0
51759.0,STARLINK-3456,PAYLOAD,2022-10-03 20:35:51,15.08872625,0.0001628,53.219,173.3018,67.7184,292.3981,0.0011042,0.00017345,0.0,0 STARLINK-3456,1 51759U 22016AX  22276.85823483  .00017345  00000-0  11042-2 0  9998,2 51759  53.2190 173.3018 0001628  67.7184 292.3981 15.08872625 34579,6917.781,95.435,540.7719999999998,538.519,0.0
51759.0,STARLINK-3456,PAYLOAD,2022-10-04 02:57:23,15.0886989,0.0001683,53.218,172.1142,58.9217,301.194,0.00078827,0.0001229,0.0,0 STARLINK-3456,1 51759U 22016AX  22277.12319175  .00012290  00000-0  78827-3 0  9996,2 51759  53.2180 172.1142 0001683  58.9217 301.1940 15.08869890 34612,6917.7890000000025,95.436,540.818,538.49,0.0
51759.0,STARLINK-3456,PAYLOAD,2022-10-04 20:26:38,15.08851142,0.0003217,53.2191,168.8424,39.267,320.8555,0.00037881,5.747e-05,0.0,0 STARLINK-3456,1 51759U 22016AX  22277.85183563  .00005747  00000-0  37881-3 0  9990,2 51759  53.2191 168.8424 0003217  39.2670 320.8555 15.08851142 34722,6917.846,95.437,541.937,537.486,0.0
51759.0,STARLINK-3456,PAYLOAD,2022-10-05 20:17:25,15.08834059,0.0001506,53.2185,164.3838,46.3111,313.8006,0.00016436,2.328e-05,0.0,0 STARLINK-3456,1 51759U 22016AX  22278.84543622  .00002328  00000-0  16436-3 0  9991,2 51759  53.2185 164.3838 0001506  46.3111 313.8006 15.08834059 34870,6917.899,95.438,540.805,538.722,0.0
51759.0,STARLINK-3456,PAYLOAD,2022-10-05 23:28:11,15.08831629,0.0001375999999999,53.2187,163.7856,72.2828,287.8314,-0.00019733,-3.426e-05,0.0,0 STARLINK-3456,1 51759U 22016AX  22278.97791643 -.00003426  00000-0 -19733-3 0  9998,2 51759  53.2187 163.7856 0001376  72.2828 287.8314 15.08831629 36024,6917.906,95.438,540.7230000000002,538.819,0.0
51759.0,STARLINK-3456,PAYLOAD,2022-10-06 09:00:30,15.0883967,0.0001476999999999,53.2187,162.0037,57.6965,302.4170000000001,2.3661e-05,8.9e-07,0.0,0 STARLINK-3456,1 51759U 22016AX  22279.37535601  .00000089  00000-0  23661-4 0  9999,2 51759  53.2187 162.0037 0001477  57.6965 302.4170 15.08839670 34956,6917.880999999999,95.438,540.768,538.725,0.0
51759.0,STARLINK-3456,PAYLOAD,2022-10-06 18:32:49,15.08835925,0.0001643,53.2186,160.2196,52.6129,307.5013,0.00018122,2.597e-05,0.0,0 STARLINK-3456,1 51759U 22016AX  22279.77279934  .00002597  00000-0  18122-3 0  9998,2 51759  53.2186 160.2196 0001643  52.6129 307.5013 15.08835925 35012,6917.893,95.438,540.894,538.621,0.0
51759.0,STARLINK-3456,PAYLOAD,2022-10-07 02:29:45,15.08831332,0.0001608,53.2184,158.7323,60.9407,299.1746,5.3938e-05,5.700000000000001e-06,0.0,0 STARLINK-3456,1 51759U 22016AX  22280.10400272  .00000570  00000-0  53938-4 0  9992,2 51759  53.2184 158.7323 0001608  60.9407 299.1746 15.08831332 36193,6917.906999999997,95.438,540.884,538.659,0.0
51759.0,STARLINK-3456,PAYLOAD,2022-10-07 21:34:23,15.08818274,0.0001631999999999,53.2193,155.1633,62.5784,297.5374,0.00042394,6.461e-05,0.0,0 STARLINK-3456,1 51759U 22016AX  22280.89888620  .00006461  00000-0  42394-3 0  9993,2 51759  53.2193 155.1633 0001632  62.5784 297.5374 15.08818274 35188,6917.946999999999,95.439,540.941,538.683,0.0
51759.0,STARLINK-3456,PAYLOAD,2022-10-08 08:42:05,15.08831931,0.0001698,53.2188,153.0817,60.6622,299.454,3.2631999999999995e-05,2.31e-06,0.0,0 STARLINK-3456,1 51759U 22016AX  22281.36256654  .00000231  00000-0  32632-4 0  9996,2 51759  53.2188 153.0817 0001698  60.6622 299.4540 15.08831931 35254,6917.905,95.438,540.945,538.595,0.0
51759.0,STARLINK-3456,PAYLOAD,2022-10-08 19:49:48,15.08829072,0.0001695,53.22,150.9994,53.6967,306.4181,2.7386e-05,1.48e-06,0.0,0 STARLINK-3456,1 51759U 22016AX  22281.82625517  .00000148  00000-0  27386-4 0  9992,2 51759  53.2200 150.9994 0001695  53.6967 306.4181 15.08829072 36458,6917.9140000000025,95.438,540.951,538.606,0.0
51759.0,STARLINK-3456,PAYLOAD,2022-10-09 08:32:53,15.088375199999998,0.0001811999999999,53.2197,148.6207,63.3011,296.8166,0.00012125,1.642e-05,0.0,0 STARLINK-3456,1 51759U 22016AX  22282.35617033  .00001642  00000-0  12125-3 0  9999,2 51759  53.2197 148.6207 0001812  63.3011 296.8166 15.08837520 36534,6917.888000000001,95.438,541.006,538.499,0.0
51759.0,STARLINK-3456,PAYLOAD,2022-10-09 19:40:34,15.08848041,0.0001781999999999,53.2199,146.5392,65.1238,294.994,0.00013064,1.792e-05,0.0,0 STARLINK-3456,1 51759U 22016AX  22282.81984291  .00001792  00000-0  13064-3 0  9992,2 51759  53.2199 146.5392 0001782  65.1238 294.9940 15.08848041 36602,6917.856,95.437,540.9540000000002,538.488,0.0
51759.0,STARLINK-3456,PAYLOAD,2022-10-09 21:15:57,15.08847931,0.0001583,53.2176,146.244,65.8576,294.2582,0.00020259,2.938e-05,0.0,0 STARLINK-3456,1 51759U 22016AX  22282.88608443  .00002938  00000-0  20259-3 0  9998,2 51759  53.2176 146.2440 0001583  65.8576 294.2582 15.08847931 35486,6917.856,95.437,540.816,538.626,0.0
51759.0,STARLINK-3456,PAYLOAD,2022-10-10 08:23:39,15.08843163,0.0001720999999999,53.2192,144.1609,64.6008,295.5162,0.00016241,2.298e-05,0.0,0 STARLINK-3456,1 51759U 22016AX  22283.34976758  .00002298  00000-0  16241-3 0  9992,2 51759  53.2192 144.1609 0001721  64.6008 295.5162 15.08843163 35558,6917.871,95.437,540.9259999999998,538.545,0.0
51759.0,STARLINK-3456,PAYLOAD,2022-10-10 17:55:59,15.08834768,0.0001496,53.2187,142.3743,76.5824,283.5335,0.00011699,1.574e-05,0.0,0 STARLINK-3456,1 51759U 22016AX  22283.74721245  .00001574  00000-0  11699-3 0  9993,2 51759  53.2187 142.3743 0001496  76.5824 283.5335 15.08834768 36740,6917.896,95.438,540.7959999999998,538.726,0.0
51759.0,STARLINK-3456,PAYLOAD,2022-10-10 21:06:45,15.08833053,0.0001533,53.2192,141.7833,59.1961,300.9182,7.605100000000001e-05,9.22e-06,0.0,0 STARLINK-3456,1 51759U 22016AX  22283.87969455  .00000922  00000-0  76051-4 0  9994,2 51759  53.2192 141.7833 0001533  59.1961 300.9182 15.08833053 35637,6917.901999999999,95.438,540.827,538.706,0.0
51759.0,STARLINK-3456,PAYLOAD,2022-10-11 00:17:31,15.088482699999998,0.000161,53.2177,141.188,65.1506,294.9654,0.00022041,3.222e-05,0.0,0 STARLINK-3456,1 51759U 22016AX  22284.01216693  .00003222  00000-0  22041-3 0  9995,2 51759  53.2177 141.1880 0001610  65.1506 294.9654 15.08848270 36784,6917.855,95.437,540.8340000000002,538.606,0.0
